IRIDIUM 166             
1 43570U 18061B   24033.46770652  .00000284  00000+0  94189-4 0  9992
2 43570  86.3926  58.5324 0001850  95.0547 265.0860 14.34216279289315
IRIDIUM 158             
1 43571U 18061C   24033.50576566  .00000320  00000+0  10727-3 0  9992
2 43571  86.3927  58.5251 0002124  95.7383 264.4055 14.34216498289295
IRIDIUM 165             
1 43572U 18061D   24033.46136748  .00000321  00000+0  10746-3 0  9994
2 43572  86.3934  58.5752 0002188  99.9174 260.2269 14.34216887289309
IRIDIUM 155             
1 43573U 18061E   24033.14423638  .00000322  00000+0  10776-3 0  9991
2 43573  86.3923  58.6182 0002052  84.1654 275.9775 14.34216778289231
IRIDIUM 154             
1 43574U 18061F   24032.49729498 -.00000037  00000+0 -20131-4 0  9994
2 43574  86.3926  58.9805 0002295  91.0423 269.1036 14.34218725289183
IRIDIUM 163             
1 43575U 18061G   24033.45502611  .00000226  00000+0  73502-4 0  9996
2 43575  86.3928  58.5223 0002287  89.2245 270.9213 14.34217092289293
IRIDIUM 156             
1 43576U 18061H   24033.49941804  .00000300  00000+0  99911-4 0  9997
2 43576  86.3928  58.5097 0002019  97.1203 263.0223 14.34221118289285
IRIDIUM 164             
1 43577U 18061J   24032.50363242  .00000274  00000+0  90926-4 0  9990
2 43577  86.3929  58.9532 0002235  98.5252 261.6197 14.34220544289190
